{
  "type": "FeatureCollection",
  "features": [
    {
      "type": "Feature",
      "properties": {
        "norad_id": 38797,
        "name": "FENGYUN 1C DEB",
        "group": "fengyun-1c-debris",
        "lat": 80.33151250368749,
        "lon": 144.2916640227565,
        "alt_km": 1092.6760978451257,
        "timestamp": "2025-12-18T17:50:15.246579+00:00",
        "meta_object_name": "FENGYUN 1C DEB",
        "meta_object_id": "1999-025EUM",
        "meta_epoch": "2025-12-17T23:44:01.184640",
        "meta_mean_motion": 13.61612988,
        "meta_eccentricity": 0.02448803,
        "meta_inclination": 99.4841,
        "meta_ra_of_asc_node": 244.6966,
        "meta_arg_of_pericenter": 207.8615,
        "meta_mean_anomaly": 150.9232,
        "meta_ephemeris_type": 0,
        "meta_classification_type": "U",
        "meta_norad_cat_id": 38797,
        "meta_element_set_no": 999,
        "meta_rev_at_epoch": 59354,
        "meta_bstar": 0.00020864031,
        "meta_mean_motion_dot": 1.51e-06,
        "meta_mean_motion_ddot": 0,
        "tle_line1": "1 38797U 99025EUM 25351.98890260  .00000151  00000+0  20864-3 0  9996",
        "tle_line2": "2 38797  99.4841 244.6966 0244880 207.8615 150.9232 13.61612988593546"
      },
      "geometry": {
        "type": "Point",
        "coordinates": [
          144.2916640227565,
          80.33151250368749
        ]
      }
    },
    {
      "type": "Feature",
      "properties": {
        "norad_id": 38799,
        "name": "FENGYUN 1C DEB",
        "group": "fengyun-1c-debris",
        "lat": -3.4741857823667677,
        "lon": -112.33795126249768,
        "alt_km": 831.643921734656,
        "timestamp": "2025-12-18T17:50:15.246589+00:00",
        "meta_object_name": "FENGYUN 1C DEB",
        "meta_object_id": "1999-025EUP",
        "meta_epoch": "2025-12-17T22:45:09.703872",
        "meta_mean_motion": 14.48783843,
        "meta_eccentricity": 0.01634283,
        "meta_inclination": 98.4059,
        "meta_ra_of_asc_node": 67.3844,
        "meta_arg_of_pericenter": 334.4042,
        "meta_mean_anomaly": 24.9125,
        "meta_ephemeris_type": 0,
        "meta_classification_type": "U",
        "meta_norad_cat_id": 38799,
        "meta_element_set_no": 999,
        "meta_rev_at_epoch": 64114,
        "meta_bstar": 0.00068941476,
        "meta_mean_motion_dot": 3.031e-05,
        "meta_mean_motion_ddot": 0,
        "tle_line1": "1 38799U 99025EUP 25351.94802898  .00003031  00000+0  68941-3 0  9992",
        "tle_line2": "2 38799  98.4059  67.3844 0163428 334.4042  24.9125 14.48783843641148"
      },
      "geometry": {
        "type": "Point",
        "coordinates": [
          -112.33795126249768,
          -3.4741857823667677
        ]
      }
    },
    {
      "type": "Feature",
      "properties": {
        "norad_id": 38801,
        "name": "FENGYUN 1C DEB",
        "group": "fengyun-1c-debris",
        "lat": -57.684805875639135,
        "lon": 56.56867767051583,
        "alt_km": 604.439950764594,
        "timestamp": "2025-12-18T17:50:15.246600+00:00",
        "meta_object_name": "FENGYUN 1C DEB",
        "meta_object_id": "1999-025EUR",
        "meta_epoch": "2025-12-14T23:38:20.156064",
        "meta_mean_motion": 14.2482334,
        "meta_eccentricity": 0.03468339,
        "meta_inclination": 98.3742,
        "meta_ra_of_asc_node": 39.5088,
        "meta_arg_of_pericenter": 345.3815,
        "meta_mean_anomaly": 131.5103,
        "meta_ephemeris_type": 0,
        "meta_classification_type": "U",
        "meta_norad_cat_id": 38801,
        "meta_element_set_no": 999,
        "meta_rev_at_epoch": 64392,
        "meta_bstar": 0.00040763026,
        "meta_mean_motion_dot": 1.732e-05,
        "meta_mean_motion_ddot": 0,
        "tle_line1": "1 38801U 99025EUR 25348.98495551  .00001732  00000+0  40763-3 0  9998",
        "tle_line2": "2 38801  98.3742  39.5088 0346833 345.3815 131.5103 14.24823340643923"
      },
      "geometry": {
        "type": "Point",
        "coordinates": [
          56.56867767051583,
          -57.684805875639135
        ]
      }
    },
    {
      "type": "Feature",
      "properties": {
        "norad_id": 38803,
        "name": "FENGYUN 1C DEB",
        "group": "fengyun-1c-debris",
        "lat": 29.915320855803287,
        "lon": -177.86664758356784,
        "alt_km": 840.8444151769882,
        "timestamp": "2025-12-18T17:50:15.246610+00:00",
        "meta_object_name": "FENGYUN 1C DEB",
        "meta_object_id": "1999-025EUT",
        "meta_epoch": "2025-12-11T23:13:14.211840",
        "meta_mean_motion": 14.23655987,
        "meta_eccentricity": 0.006424,
        "meta_inclination": 99.1403,
        "meta_ra_of_asc_node": 349.7804,
        "meta_arg_of_pericenter": 38.5359,
        "meta_mean_anomaly": 322.0379,
        "meta_ephemeris_type": 0,
        "meta_classification_type": "U",
        "meta_norad_cat_id": 38803,
        "meta_element_set_no": 999,
        "meta_rev_at_epoch": 60201,
        "meta_bstar": 0.003165,
        "meta_mean_motion_dot": 7.334e-05,
        "meta_mean_motion_ddot": 0,
        "tle_line1": "1 38803U 99025EUT 25345.96752560  .00007334  00000+0  31650-2 0  9999",
        "tle_line2": "2 38803  99.1403 349.7804 0064240  38.5359 322.0379 14.23655987602019"
      },
      "geometry": {
        "type": "Point",
        "coordinates": [
          -177.86664758356784,
          29.915320855803287
        ]
      }
    },
    {
      "type": "Feature",
      "properties": {
        "norad_id": 38809,
        "name": "FENGYUN 1C DEB",
        "group": "fengyun-1c-debris",
        "lat": -17.161801545510333,
        "lon": 5.399762375215701,
        "alt_km": 699.239716651643,
        "timestamp": "2025-12-18T17:50:15.246620+00:00",
        "meta_object_name": "FENGYUN 1C DEB",
        "meta_object_id": "1999-025EUZ",
        "meta_epoch": "2025-12-17T06:21:31.292064",
        "meta_mean_motion": 14.1818546,
        "meta_eccentricity": 0.02227724,
        "meta_inclination": 98.5889,
        "meta_ra_of_asc_node": 1.2928,
        "meta_arg_of_pericenter": 314.9408,
        "meta_mean_anomaly": 43.3884,
        "meta_ephemeris_type": 0,
        "meta_classification_type": "U",
        "meta_norad_cat_id": 38809,
        "meta_element_set_no": 999,
        "meta_rev_at_epoch": 69270,
        "meta_bstar": 0.0004339011,
        "meta_mean_motion_dot": 1.092e-05,
        "meta_mean_motion_ddot": 0,
        "tle_line1": "1 38809U 99025EUZ 25351.26494551  .00001092  00000+0  43390-3 0  9998",
        "tle_line2": "2 38809  98.5889   1.2928 0222772 314.9408  43.3884 14.18185460692702"
      },
      "geometry": {
        "type": "Point",
        "coordinates": [
          5.399762375215701,
          -17.161801545510333
        ]
      }
    },
    {
      "type": "Feature",
      "properties": {
        "norad_id": 38813,
        "name": "FENGYUN 1C DEB",
        "group": "fengyun-1c-debris",
        "lat": 51.29823191240242,
        "lon": -177.89782243565202,
        "alt_km": 815.8307750142294,
        "timestamp": "2025-12-18T17:50:15.246631+00:00",
        "meta_object_name": "FENGYUN 1C DEB",
        "meta_object_id": "1999-025EVD",
        "meta_epoch": "2025-12-16T17:53:41.226720",
        "meta_mean_motion": 14.20173865,
        "meta_eccentricity": 0.00065742,
        "meta_inclination": 99.3457,
        "meta_ra_of_asc_node": 348.1323,
        "meta_arg_of_pericenter": 103.641,
        "meta_mean_anomaly": 256.5497,
        "meta_ephemeris_type": 0,
        "meta_classification_type": "U",
        "meta_norad_cat_id": 38813,
        "meta_element_set_no": 999,
        "meta_rev_at_epoch": 48307,
        "meta_bstar": 0.00049318578,
        "meta_mean_motion_dot": 1.004e-05,
        "meta_mean_motion_ddot": 0,
        "tle_line1": "1 38813U 99025EVD 25350.74561605  .00001004  00000+0  49319-3 0  9990",
        "tle_line2": "2 38813  99.3457 348.1323 0006574 103.6410 256.5497 14.20173865483070"
      },
      "geometry": {
        "type": "Point",
        "coordinates": [
          -177.89782243565202,
          51.29823191240242
        ]
      }
    },
    {
      "type": "Feature",
      "properties": {
        "norad_id": 38817,
        "name": "FENGYUN 1C DEB",
        "group": "fengyun-1c-debris",
        "lat": -32.83129422787062,
        "lon": 36.7481498992035,
        "alt_km": 1265.7397806512936,
        "timestamp": "2025-12-18T17:50:15.246641+00:00",
        "meta_object_name": "FENGYUN 1C DEB",
        "meta_object_id": "1999-025EVH",
        "meta_epoch": "2025-12-15T21:35:28.563360",
        "meta_mean_motion": 13.57702829,
        "meta_eccentricity": 0.02914897,
        "meta_inclination": 98.6005,
        "meta_ra_of_asc_node": 219.8586,
        "meta_arg_of_pericenter": 36.1735,
        "meta_mean_anomaly": 325.8742,
        "meta_ephemeris_type": 0,
        "meta_classification_type": "U",
        "meta_norad_cat_id": 38817,
        "meta_element_set_no": 999,
        "meta_rev_at_epoch": 65877,
        "meta_bstar": 0.0018611629,
        "meta_mean_motion_dot": 1.729e-05,
        "meta_mean_motion_ddot": 0,
        "tle_line1": "1 38817U 99025EVH 25349.89963615  .00001729  00000+0  18612-2 0  9990",
        "tle_line2": "2 38817  98.6005 219.8586 0291489  36.1735 325.8742 13.57702829658772"
      },
      "geometry": {
        "type": "Point",
        "coordinates": [
          36.7481498992035,
          -32.83129422787062
        ]
      }
    }
  ]
}